NORAD_CAT_ID,OBJECT_NAME,OBJECT_TYPE,EPOCH,MEAN_MOTION,ECCENTRICITY,INCLINATION,RA_OF_ASC_NODE,ARG_OF_PERICENTER,MEAN_ANOMALY,BSTAR,MEAN_MOTION_DOT,MEAN_MOTION_DDOT,TLE_LINE0,TLE_LINE1,TLE_LINE2,SEMIMAJOR_AXIS,PERIOD,APOGEE,PERIGEE,DECAYED
53742.0,STARLINK-4637,PAYLOAD,2024-04-28 06:24:11,15.08805589,0.0001151,53.2185,78.5928,145.1234,214.9833,-0.00027062,-4.588e-05,0.0,0 STARLINK-4637,1 53742U 22107AU  24119.26680211 -.00004588  00000-0 -27062-3 0  9993,2 53742  53.2185  78.5928 0001151 145.1234 214.9833 15.08805589 91092,6917.986,95.44,540.647,539.054,0.0
53742.0,STARLINK-4637,PAYLOAD,2024-04-28 14:21:05,15.08842973,0.0001359,53.2183,77.1016,93.8906,266.2241,-2.1817e-05,-6.35e-06,0.0,0 STARLINK-4637,1 53742U 22107AU  24119.59797555 -.00000635  00000-0 -21817-4 0  9991,2 53742  53.2183  77.1016 0001359  93.8906 266.2241 15.08842973 91921,6917.871,95.437,540.676,538.796,0.0
53742.0,STARLINK-4637,PAYLOAD,2024-04-28 20:42:37,15.08831653,0.0001325,53.2187,75.916,108.7005,251.4131,0.0001458,2.033e-05,0.0,0 STARLINK-4637,1 53742U 22107AU  24119.86293708  .00002033  00000-0  14580-3 0  9992,2 53742  53.2187  75.9160 0001325 108.7005 251.4131 15.08831653 91185,6917.906,95.438,540.688,538.854,0.0
53742.0,STARLINK-4637,PAYLOAD,2024-04-29 04:39:32,15.0885451,0.0001613,53.2182,74.4233,94.1356,265.9821,0.00017625,2.519e-05,0.0,0 STARLINK-4637,1 53742U 22107AU  24120.19412355  .00002519  00000-0  17625-3 0  9993,2 53742  53.2182  74.4233 0001613  94.1356 265.9821 15.08854510 91231,6917.836,95.437,540.817,538.585,0.0
53742.0,STARLINK-4637,PAYLOAD,2024-04-29 14:11:50,15.08862607,0.0001511,53.2177,72.6397,88.909,271.2075,0.00015722,2.217e-05,0.0,0 STARLINK-4637,1 53742U 22107AU  24120.59155357  .00002217  00000-0  15722-3 0  9994,2 53742  53.2177  72.6397 0001511  88.9090 271.2075 15.08862607 92079,6917.811,95.436,540.722,538.631,0.0
53742.0,STARLINK-4637,PAYLOAD,2024-04-29 20:33:24,15.08821869,0.0001459,53.2181,71.4525,89.8191,270.2969,0.00013147,1.804e-05,0.0,0 STARLINK-4637,1 53742U 22107AU  24120.85653868  .00001804  00000-0  13147-3 0  9993,2 53742  53.2181  71.4525 0001459  89.8191 270.2969 15.08821869 91331,6917.936,95.439,540.81,538.791,0.0
53742.0,STARLINK-4637,PAYLOAD,2024-04-30 06:05:43,15.08824756,0.0001444,53.2176,69.6673,104.5142,255.6011,0.00026221,3.886e-05,0.0,0 STARLINK-4637,1 53742U 22107AU  24121.25397347  .00003886  00000-0  26221-3 0  9994,2 53742  53.2176  69.6673 0001444 104.5142 255.6011 15.08824756 91392,6917.927,95.439,540.791,538.793,0.0
53742.0,STARLINK-4637,PAYLOAD,2024-04-30 14:02:39,15.08803063,0.0001416,53.2179,68.1806,95.996,264.1194,0.00065039,0.00010068,0.0,0 STARLINK-4637,1 53742U 22107AU  24121.58517845  .00010068  00000-0  65039-3 0  9997,2 53742  53.2179  68.1806 0001416  95.9960 264.1194 15.08803063 92225,6917.993,95.44,540.838,538.879,0.0
53742.0,STARLINK-4637,PAYLOAD,2024-05-01 02:45:44,15.08841116,0.0001419,53.2193,65.8026,98.8972,261.2181,-2.2555e-05,-6.47e-06,0.0,0 STARLINK-4637,1 53742U 22107AU  24122.11509318 -.00000647  00000-0 -22555-4 0  9994,2 53742  53.2193  65.8026 0001419  98.8972 261.2181 15.08841116 91524,6917.877,95.437,540.724,538.76,0.0
53742.0,STARLINK-4637,PAYLOAD,2024-05-01 20:14:57,15.08832468,0.0001377,53.2203,62.5305,99.8578,260.257,0.00014483,2.017e-05,0.0,0 STARLINK-4637,1 53742U 22107AU  24122.84372548  .00002017  00000-0  14483-3 0  9998,2 53742  53.2203  62.5305 0001377  99.8578 260.2570 15.08832468 92416,6917.903,95.438,540.721,538.816,0.0
53742.0,STARLINK-4637,PAYLOAD,2024-05-02 05:47:16,15.08840123,0.0001501,53.2186,60.7447,98.0072,262.1091,-4.6697e-05,-1.031e-05,0.0,0 STARLINK-4637,1 53742U 22107AU  24123.24116816 -.00001031  00000-0 -46697-4 0  9997,2 53742  53.2186  60.7447 0001501  98.0072 262.1091 15.08840123 91697,6917.88,95.438,540.783,538.707,0.0
53742.0,STARLINK-4637,PAYLOAD,2024-05-03 02:27:17,15.08850614,0.0001547,53.217,56.8818,87.507,272.61,-5.615e-05,-1.182e-05,0.0,0 STARLINK-4637,1 53742U 22107AU  24124.10228055 -.00001182  00000-0 -56150-4 0  9994,2 53742  53.2170  56.8818 0001547  87.5070 272.6100 15.08850614 91827,6917.848,95.437,540.783,538.643,0.0
53742.0,STARLINK-4637,PAYLOAD,2024-05-03 11:59:34,15.0885432,0.0001354,53.2179,55.097,93.2023,266.9124,0.0001134,1.518e-05,0.0,0 STARLINK-4637,1 53742U 22107AU  24124.49971015  .00001518  00000-0  11340-3 0  9999,2 53742  53.2179  55.0970 0001354  93.2023 266.9124 15.08854320 91880,6917.837,95.437,540.638,538.765,0.0
53742.0,STARLINK-4637,PAYLOAD,2024-05-04 03:53:29,15.08816677,0.0001382,53.2184,52.1238,88.9385,271.1765,-0.00012745,-2.314e-05,0.0,0 STARLINK-4637,1 53742U 22107AU  24125.16214756 -.00002314  00000-0 -12745-3 0  9993,2 53742  53.2184  52.1238 0001382  88.9385 271.1765 15.08816677 91987,6917.952,95.439,540.773,538.861,0.0
53742.0,STARLINK-4637,PAYLOAD,2024-05-04 19:47:20,15.08834091,0.0001141,53.2171,49.149,81.8049,278.3073,-0.0001145,-2.109e-05,0.0,0 STARLINK-4637,1 53742U 22107AU  24125.82454346 -.00002109  00000-0 -11450-3 0  9991,2 53742  53.2171  49.1490 0001141  81.8049 278.3073 15.08834091 92084,6917.898,95.438,540.553,538.974,0.0
53742.0,STARLINK-4637,PAYLOAD,2024-05-05 03:44:15,15.08844857,0.0001364,53.2189,47.6647,93.0726,267.0422,-4.23e-06,-3.55e-06,0.0,0 STARLINK-4637,1 53742U 22107AU  24126.15573252 -.00000355  00000-0 -42300-5 0  9997,2 53742  53.2189  47.6647 0001364  93.0726 267.0422 15.08844857 92134,6917.866,95.437,540.674,538.787,0.0
53742.0,STARLINK-4637,PAYLOAD,2024-05-06 03:35:02,15.08833644,0.0001373,53.2189,43.2037,90.2016,269.9133,0.00015712,2.213e-05,0.0,0 STARLINK-4637,1 53742U 22107AU  24127.14933661  .00002213  00000-0  15712-3 0  9999,2 53742  53.2189  43.2037 0001373  90.2016 269.9133 15.08833644 92288,6917.9,95.438,540.715,538.815,0.0
53742.0,STARLINK-4637,PAYLOAD,2024-05-06 11:31:57,15.08840372,0.0001654,53.2202,41.7156,82.5761,277.5419,0.00034412,5.193e-05,0.0,0 STARLINK-4637,1 53742U 22107AU  24127.48052737  .00005193  00000-0  34412-3 0  9990,2 53742  53.2202  41.7156 0001654  82.5761 277.5419 15.08840372 92336,6917.879,95.438,540.888,538.6,0.0
53742.0,STARLINK-4637,PAYLOAD,2024-05-06 22:39:39,15.08850889,0.0002004,53.2187,39.6322,81.6053,278.5167,4.805e-05,4.77e-06,0.0,0 STARLINK-4637,1 53742U 22107AU  24127.94420850  .00000477  00000-0  48050-4 0  9990,2 53742  53.2187  39.6322 0002004  81.6053 278.5167 15.08850889 93182,6917.847,95.437,541.098,538.326,0.0
53742.0,STARLINK-4637,PAYLOAD,2024-05-07 11:22:43,15.08856909,0.0001438,53.2186,37.2578,86.0233,274.0924,9.7411e-05,1.263e-05,0.0,0 STARLINK-4637,1 53742U 22107AU  24128.47411800  .00001263  00000-0  97411-4 0  9993,2 53742  53.2186  37.2578 0001438  86.0233 274.0924 15.08856909 93267,6917.829,95.436,540.688,538.699,0.0
53742.0,STARLINK-4637,PAYLOAD,2024-05-07 17:44:18,15.08841132,0.0001943,53.2184,36.0681,85.7607,274.3607,-0.00016957,-2.986e-05,0.0,0 STARLINK-4637,1 53742U 22107AU  24128.73909963 -.00002986  00000-0 -16957-3 0  9994,2 53742  53.2184  36.0681 0001943  85.7607 274.3607 15.08841132 92520,6917.877,95.437,541.086,538.398,0.0
53742.0,STARLINK-4637,PAYLOAD,2024-05-07 22:30:28,15.08832801,0.0001387,53.2183,35.1766,87.4427,272.6724,-0.0002305,-3.954e-05,0.0,0 STARLINK-4637,1 53742U 22107AU  24128.93782543 -.00003954  00000-0 -23050-3 0  9997,2 53742  53.2183  35.1766 0001387  87.4427 272.6724 15.08832801 93338,6917.902,95.438,540.727,538.808,0.0
53742.0,STARLINK-4637,PAYLOAD,2024-05-08 11:13:32,15.0883921,0.0001567,53.2197,32.794,104.8956,255.221,-6.0196e-05,-1.246e-05,0.0,0 STARLINK-4637,1 53742U 22107AU  24129.46773506 -.00001246  00000-0 -60196-4 0  9990,2 53742  53.2197  32.7940 0001567 104.8956 255.2210 15.08839210 93418,6917.883,95.438,540.832,538.664,0.0
53742.0,STARLINK-4637,PAYLOAD,2024-05-08 20:45:50,15.08839621,0.0001492,53.2188,31.0098,103.6814,256.4344,-1.2628e-05,-4.89e-06,0.0,0 STARLINK-4637,1 53742U 22107AU  24129.86517152 -.00000489  00000-0 -12628-4 0  9992,2 53742  53.2188  31.0098 0001492 103.6814 256.4344 15.08839621 92697,6917.882,95.438,540.779,538.714,0.0
53742.0,STARLINK-4637,PAYLOAD,2024-05-08 22:21:13,15.08840879,0.0001529,53.2195,30.7127,101.9902,258.1262,-1.6292e-06,-3.14e-06,0.0,0 STARLINK-4637,1 53742U 22107AU  24129.93141057 -.00000314  00000-0 -16292-5 0  9996,2 53742  53.2195  30.7127 0001529 101.9902 258.1262 15.08840879 93487,6917.878,95.437,540.8,538.685,0.0
53742.0,STARLINK-4637,PAYLOAD,2024-05-08 23:56:36,15.08840282,0.0001454,53.2195,30.4157,101.4183,258.6972,1.3715e-05,-7e-07,0.0,0 STARLINK-4637,1 53742U 22107AU  24129.99765034 -.00000070  00000-0  13715-4 0  9993,2 53742  53.2195  30.4157 0001454 101.4183 258.6972 15.08840282 93492,6917.88,95.438,540.75,538.739,0.0
53742.0,STARLINK-4637,PAYLOAD,2024-05-09 22:12:01,15.08831311,0.0001542,53.2198,26.2529,109.0638,251.0522,0.0001445,2.012e-05,0.0,0 STARLINK-4637,1 53742U 22107AU  24130.92501259  .00002012  00000-0  14450-3 0  9998,2 53742  53.2198  26.2529 0001542 109.0638 251.0522 15.08831311 93635,6917.907,95.438,540.839,538.705,0.0
53742.0,STARLINK-4637,PAYLOAD,2024-05-10 02:58:10,15.08834683,0.0001194,53.2173,25.3624,84.0894,276.0234,0.0001398,1.937e-05,0.0,0 STARLINK-4637,1 53742U 22107AU  24131.12373257  .00001937  00000-0  13980-3 0  9998,2 53742  53.2173  25.3624 0001194  84.0894 276.0234 15.08834683 92881,6917.897,95.438,540.588,538.936,0.0
53742.0,STARLINK-4637,PAYLOAD,2024-05-10 20:27:25,15.08833808,0.0001309,53.2192,22.0885,95.5524,264.5618,-5.5753e-06,-3.77e-06,0.0,0 STARLINK-4637,1 53742U 22107AU  24131.85238013 -.00000377  00000-0 -55753-5 0  9993,2 53742  53.2192  22.0885 0001309  95.5524 264.5618 15.08833808 92998,6917.899,95.438,540.67,538.859,0.0
53742.0,STARLINK-4637,PAYLOAD,2024-05-10 22:02:48,15.08834824,0.0001314,53.2188,21.791,95.8831,264.2311,-5.0699e-07,-2.96e-06,0.0,0 STARLINK-4637,1 53742U 22107AU  24131.91861949 -.00000296  00000-0 -50699-6 0  9995,2 53742  53.2188  21.7910 0001314  95.8831 264.2311 15.08834824 93782,6917.896,95.438,540.67,538.852,0.0
